ONEWEB-0205             
1 48226U 21031S   26094.07513652 -.00000117  00000+0 -35117-3 0  9999
2 48226  87.8939 304.4866 0001604  81.2725 278.8586 13.14501326238536
ONEWEB-0206             
1 48227U 21031T   26094.04820410  .00001200  00000+0  32025-2 0  9996
2 48227  87.8944 304.4940 0001670  92.2583 267.8738 13.14497758238487
ONEWEB-0182             
1 48228U 21031U   26094.11954886  .00000252  00000+0  64403-3 0  9992
2 48228  87.8940 304.4906 0001431  88.9320 271.1973 13.14504015238701
ONEWEB-0186             
1 48229U 21031V   26094.13064537  .00000100  00000+0  23626-3 0  9994
2 48229  87.8942 304.4762 0001638  82.4860 277.6455 13.14501879238656
ONEWEB-0181             
1 48230U 21031W   26094.10844880  .00000254  00000+0  65036-3 0  9991
2 48230  87.8930 304.5194 0001747  81.2818 278.8509 13.14503985238503
ONEWEB-0188             
1 48231U 21031X   26094.07038232 -.00000148  00000+0 -43259-3 0  9991
2 48231  87.8931 304.5246 0001642  85.3476 274.7841 13.14504823238407
ONEWEB-0220             
1 48232U 21031Y   26094.11003578  .00000170  00000+0  42421-3 0  9995
2 48232  87.8941 304.4797 0001542  80.0027 280.1277 13.14504156238674
ONEWEB-0165             
1 48233U 21031Z   26094.13858722 -.00000149  00000+0 -43632-3 0  9990
2 48233  87.8943 304.4910 0001905  77.5784 282.5558 13.14503689238632
ONEWEB-0199             
1 48234U 21031AA  26094.04661353  .00000168  00000+0  41905-3 0  9993
2 48234  87.8949 304.4910 0001672  92.0966 268.0355 13.14501991238520
ONEWEB-0203             
1 48235U 21031AB  26094.11320664  .00000236  00000+0  60276-3 0  9997
2 48235  87.8952 304.4796 0001830  87.6856 272.4483 13.14501669238546
ONEWEB-0197             
1 48236U 21031AC  26094.08768570 -.00000232  00000+0 -66046-3 0  9995
2 48236  87.8937 304.4802 0001363  90.8585 269.2701 13.14502913238454
ONEWEB-0194             
1 48237U 21031AD  26094.06721357 -.00000206  00000+0 -59095-3 0  9993
2 48237  87.8945 304.5018 0001862  92.1119 268.0223 13.14504131238625
ONEWEB-0193             
1 48238U 21031AE  26094.08306543 -.00000103  00000+0 -31213-3 0  9990
2 48238  87.8939 304.4909 0002008  97.3505 262.7853 13.14501305238570
ONEWEB-0191             
1 48239U 21031AF  26094.09418978  .00000118  00000+0  28295-3 0  9998
2 48239  87.8942 304.4844 0001515  89.4791 270.6513 13.14505364238439
ONEWEB-0195             
1 48240U 21031AG  26094.14729256 -.00000313  00000+0 -87923-3 0  9992
2 48240  87.8946 304.4699 0001890  74.6923 285.4415 13.14502509238424
ONEWEB-0201             
1 48241U 21031AH  26094.13554396 -.00000115  00000+0 -34589-3 0  9993
2 48241  87.8936 304.4992 0001330  79.5175 280.6104 13.14502495238653
