[{"OBJECT_NAME":"ONEWEB-0205","OBJECT_ID":"2021-031S","EPOCH":"2026-04-04T01:48:11.795328","MEAN_MOTION":13.14501326,"ECCENTRICITY":0.0001604,"INCLINATION":87.8939,"RA_OF_ASC_NODE":304.4866,"ARG_OF_PERICENTER":81.2725,"MEAN_ANOMALY":278.8586,"EPHEMERIS_TYPE":0,"CLASSIFICATION_TYPE":"U","NORAD_CAT_ID":48226,"ELEMENT_SET_NO":999,"REV_AT_EPOCH":23853,"BSTAR":-0.00035117,"MEAN_MOTION_DOT":-1.17e-06,"MEAN_MOTION_DDOT":0.0},{"OBJECT_NAME":"ONEWEB-0206","OBJECT_ID":"2021-031T","EPOCH":"2026-04-04T01:09:24.834240","MEAN_MOTION":13.14497758,"ECCENTRICITY":0.000167,"INCLINATION":87.8944,"RA_OF_ASC_NODE":304.494,"ARG_OF_PERICENTER":92.2583,"MEAN_ANOMALY":267.8738,"EPHEMERIS_TYPE":0,"CLASSIFICATION_TYPE":"U","NORAD_CAT_ID":48227,"ELEMENT_SET_NO":999,"REV_AT_EPOCH":23848,"BSTAR":0.0032025,"MEAN_MOTION_DOT":1.2e-05,"MEAN_MOTION_DDOT":0.0},{"OBJECT_NAME":"ONEWEB-0182","OBJECT_ID":"2021-031U","EPOCH":"2026-04-04T02:52:09.021504","MEAN_MOTION":13.14504015,"ECCENTRICITY":0.0001431,"INCLINATION":87.894,"RA_OF_ASC_NODE":304.4906,"ARG_OF_PERICENTER":88.932,"MEAN_ANOMALY":271.1973,"EPHEMERIS_TYPE":0,"CLASSIFICATION_TYPE":"U","NORAD_CAT_ID":48228,"ELEMENT_SET_NO":999,"REV_AT_EPOCH":23870,"BSTAR":0.00064403,"MEAN_MOTION_DOT":2.52e-06,"MEAN_MOTION_DDOT":0.0},{"OBJECT_NAME":"ONEWEB-0186","OBJECT_ID":"2021-031V","EPOCH":"2026-04-04T03:08:07.759968","MEAN_MOTION":13.14501879,"ECCENTRICITY":0.0001638,"INCLINATION":87.8942,"RA_OF_ASC_NODE":304.4762,"ARG_OF_PERICENTER":82.486,"MEAN_ANOMALY":277.6455,"EPHEMERIS_TYPE":0,"CLASSIFICATION_TYPE":"U","NORAD_CAT_ID":48229,"ELEMENT_SET_NO":999,"REV_AT_EPOCH":23865,"BSTAR":0.00023626,"MEAN_MOTION_DOT":1e-06,"MEAN_MOTION_DDOT":0.0},{"OBJECT_NAME":"ONEWEB-0181","OBJECT_ID":"2021-031W","EPOCH":"2026-04-04T02:36:09.976320","MEAN_MOTION":13.14503985,"ECCENTRICITY":0.0001747,"INCLINATION":87.893,"RA_OF_ASC_NODE":304.5194,"ARG_OF_PERICENTER":81.2818,"MEAN_ANOMALY":278.8509,"EPHEMERIS_TYPE":0,"CLASSIFICATION_TYPE":"U","NORAD_CAT_ID":48230,"ELEMENT_SET_NO":999,"REV_AT_EPOCH":23850,"BSTAR":0.0006503600000000001,"MEAN_MOTION_DOT":2.54e-06,"MEAN_MOTION_DDOT":0.0},{"OBJECT_NAME":"ONEWEB-0188","OBJECT_ID":"2021-031X","EPOCH":"2026-04-04T01:41:21.032448","MEAN_MOTION":13.14504823,"ECCENTRICITY":0.0001642,"INCLINATION":87.8931,"RA_OF_ASC_NODE":304.5246,"ARG_OF_PERICENTER":85.3476,"MEAN_ANOMALY":274.7841,"EPHEMERIS_TYPE":0,"CLASSIFICATION_TYPE":"U","NORAD_CAT_ID":48231,"ELEMENT_SET_NO":999,"REV_AT_EPOCH":23840,"BSTAR":-0.00043259,"MEAN_MOTION_DOT":-1.48e-06,"MEAN_MOTION_DDOT":0.0},{"OBJECT_NAME":"ONEWEB-0220","OBJECT_ID":"2021-031Y","EPOCH":"2026-04-04T02:38:27.091392","MEAN_MOTION":13.14504156,"ECCENTRICITY":0.0001542,"INCLINATION":87.8941,"RA_OF_ASC_NODE":304.4797,"ARG_OF_PERICENTER":80.0027,"MEAN_ANOMALY":280.1277,"EPHEMERIS_TYPE":0,"CLASSIFICATION_TYPE":"U","NORAD_CAT_ID":48232,"ELEMENT_SET_NO":999,"REV_AT_EPOCH":23867,"BSTAR":0.00042421,"MEAN_MOTION_DOT":1.7e-06,"MEAN_MOTION_DDOT":0.0},{"OBJECT_NAME":"ONEWEB-0165","OBJECT_ID":"2021-031Z","EPOCH":"2026-04-04T03:19:33.935808","MEAN_MOTION":13.14503689,"ECCENTRICITY":0.0001905,"INCLINATION":87.8943,"RA_OF_ASC_NODE":304.491,"ARG_OF_PERICENTER":77.5784,"MEAN_ANOMALY":282.5558,"EPHEMERIS_TYPE":0,"CLASSIFICATION_TYPE":"U","NORAD_CAT_ID":48233,"ELEMENT_SET_NO":999,"REV_AT_EPOCH":23863,"BSTAR":-0.00043631999999999997,"MEAN_MOTION_DOT":-1.49e-06,"MEAN_MOTION_DDOT":0.0},{"OBJECT_NAME":"ONEWEB-0199","OBJECT_ID":"2021-031AA","EPOCH":"2026-04-04T01:07:07.408992","MEAN_MOTION":13.14501991,"ECCENTRICITY":0.0001672,"INCLINATION":87.8949,"RA_OF_ASC_NODE":304.491,"ARG_OF_PERICENTER":92.0966,"MEAN_ANOMALY":268.0355,"EPHEMERIS_TYPE":0,"CLASSIFICATION_TYPE":"U","NORAD_CAT_ID":48234,"ELEMENT_SET_NO":999,"REV_AT_EPOCH":23852,"BSTAR":0.00041904999999999997,"MEAN_MOTION_DOT":1.68e-06,"MEAN_MOTION_DDOT":0.0},{"OBJECT_NAME":"ONEWEB-0203","OBJECT_ID":"2021-031AB","EPOCH":"2026-04-04T02:43:01.053696","MEAN_MOTION":13.14501669,"ECCENTRICITY":0.000183,"INCLINATION":87.8952,"RA_OF_ASC_NODE":304.4796,"ARG_OF_PERICENTER":87.6856,"MEAN_ANOMALY":272.4483,"EPHEMERIS_TYPE":0,"CLASSIFICATION_TYPE":"U","NORAD_CAT_ID":48235,"ELEMENT_SET_NO":999,"REV_AT_EPOCH":23854,"BSTAR":0.0006027599999999999,"MEAN_MOTION_DOT":2.36e-06,"MEAN_MOTION_DDOT":0.0},{"OBJECT_NAME":"ONEWEB-0197","OBJECT_ID":"2021-031AC","EPOCH":"2026-04-04T02:06:16.044480","MEAN_MOTION":13.14502913,"ECCENTRICITY":0.0001363,"INCLINATION":87.8937,"RA_OF_ASC_NODE":304.4802,"ARG_OF_PERICENTER":90.8585,"MEAN_ANOMALY":269.2701,"EPHEMERIS_TYPE":0,"CLASSIFICATION_TYPE":"U","NORAD_CAT_ID":48236,"ELEMENT_SET_NO":999,"REV_AT_EPOCH":23845,"BSTAR":-0.0006604600000000001,"MEAN_MOTION_DOT":-2.32e-06,"MEAN_MOTION_DDOT":0.0},{"OBJECT_NAME":"ONEWEB-0194","OBJECT_ID":"2021-031AD","EPOCH":"2026-04-04T01:36:47.252448","MEAN_MOTION":13.14504131,"ECCENTRICITY":0.0001862,"INCLINATION":87.8945,"RA_OF_ASC_NODE":304.5018,"ARG_OF_PERICENTER":92.1119,"MEAN_ANOMALY":268.0223,"EPHEMERIS_TYPE":0,"CLASSIFICATION_TYPE":"U","NORAD_CAT_ID":48237,"ELEMENT_SET_NO":999,"REV_AT_EPOCH":23862,"BSTAR":-0.00059095,"MEAN_MOTION_DOT":-2.06e-06,"MEAN_MOTION_DDOT":0.0},{"OBJECT_NAME":"ONEWEB-0193","OBJECT_ID":"2021-031AE","EPOCH":"2026-04-04T01:59:36.853152","MEAN_MOTION":13.14501305,"ECCENTRICITY":0.0002008,"INCLINATION":87.8939,"RA_OF_ASC_NODE":304.4909,"ARG_OF_PERICENTER":97.3505,"MEAN_ANOMALY":262.7853,"EPHEMERIS_TYPE":0,"CLASSIFICATION_TYPE":"U","NORAD_CAT_ID":48238,"ELEMENT_SET_NO":999,"REV_AT_EPOCH":23857,"BSTAR":-0.00031213000000000004,"MEAN_MOTION_DOT":-1.03e-06,"MEAN_MOTION_DDOT":0.0},{"OBJECT_NAME":"ONEWEB-0191","OBJECT_ID":"2021-031AF","EPOCH":"2026-04-04T02:15:37.996992","MEAN_MOTION":13.14505364,"ECCENTRICITY":0.0001515,"INCLINATION":87.8942,"RA_OF_ASC_NODE":304.4844,"ARG_OF_PERICENTER":89.4791,"MEAN_ANOMALY":270.6513,"EPHEMERIS_TYPE":0,"CLASSIFICATION_TYPE":"U","NORAD_CAT_ID":48239,"ELEMENT_SET_NO":999,"REV_AT_EPOCH":23843,"BSTAR":0.00028294999999999997,"MEAN_MOTION_DOT":1.18e-06,"MEAN_MOTION_DDOT":0.0},{"OBJECT_NAME":"ONEWEB-0195","OBJECT_ID":"2021-031AG","EPOCH":"2026-04-04T03:32:06.077184","MEAN_MOTION":13.14502509,"ECCENTRICITY":0.000189,"INCLINATION":87.8946,"RA_OF_ASC_NODE":304.4699,"ARG_OF_PERICENTER":74.6923,"MEAN_ANOMALY":285.4415,"EPHEMERIS_TYPE":0,"CLASSIFICATION_TYPE":"U","NORAD_CAT_ID":48240,"ELEMENT_SET_NO":999,"REV_AT_EPOCH":23842,"BSTAR":-0.0008792299999999999,"MEAN_MOTION_DOT":-3.13e-06,"MEAN_MOTION_DDOT":0.0},{"OBJECT_NAME":"ONEWEB-0201","OBJECT_ID":"2021-031AH","EPOCH":"2026-04-04T03:15:10.998144","MEAN_MOTION":13.14502495,"ECCENTRICITY":0.000133,"INCLINATION":87.8936,"RA_OF_ASC_NODE":304.4992,"ARG_OF_PERICENTER":79.5175,"MEAN_ANOMALY":280.6104,"EPHEMERIS_TYPE":0,"CLASSIFICATION_TYPE":"U","NORAD_CAT_ID":48241,"ELEMENT_SET_NO":999,"REV_AT_EPOCH":23865,"BSTAR":-0.00034588999999999996,"MEAN_MOTION_DOT":-1.15e-06,"MEAN_MOTION_DDOT":0.0}]